{
  "type": "FeatureCollection",
  "features": [
    {
      "type": "Feature",
      "properties": {
        "norad_id": 33972,
        "name": "COSMOS 2251 DEB",
        "group": "cosmos-2251-debris",
        "lat": -33.09663770672865,
        "lon": 32.27575187141343,
        "alt_km": 857.1796116222431,
        "timestamp": "2025-12-06T20:37:56.468616+00:00",
        "meta_object_name": "COSMOS 2251 DEB",
        "meta_object_id": "1993-036FF",
        "meta_epoch": "2025-12-06T14:45:32.511168",
        "meta_mean_motion": 14.3616007,
        "meta_eccentricity": 0.01230378,
        "meta_inclination": 73.9939,
        "meta_ra_of_asc_node": 201.9427,
        "meta_arg_of_pericenter": 11.038,
        "meta_mean_anomaly": 19.31,
        "meta_ephemeris_type": 0,
        "meta_classification_type": "U",
        "meta_norad_cat_id": 33972,
        "meta_element_set_no": 999,
        "meta_rev_at_epoch": 86986,
        "meta_bstar": 0.0018498325,
        "meta_mean_motion_dot": 5.856e-05,
        "meta_mean_motion_ddot": 0,
        "tle_line1": "1 33972U 93036FF  25340.61495962  .00005856  00000+0  18498-2 0  9996",
        "tle_line2": "2 33972  73.9939 201.9427 0123037  11.0380  19.3100 14.36160070869869"
      },
      "geometry": {
        "type": "Point",
        "coordinates": [
          32.27575187141343,
          -33.09663770672865
        ]
      }
    },
    {
      "type": "Feature",
      "properties": {
        "norad_id": 33973,
        "name": "COSMOS 2251 DEB",
        "group": "cosmos-2251-debris",
        "lat": 46.228533782293226,
        "lon": -83.54799774609455,
        "alt_km": 768.3571399254697,
        "timestamp": "2025-12-06T20:37:56.468627+00:00",
        "meta_object_name": "COSMOS 2251 DEB",
        "meta_object_id": "1993-036FG",
        "meta_epoch": "2025-12-06T15:05:21.052032",
        "meta_mean_motion": 14.45380276,
        "meta_eccentricity": 0.00472038,
        "meta_inclination": 74.0075,
        "meta_ra_of_asc_node": 114.3023,
        "meta_arg_of_pericenter": 293.8519,
        "meta_mean_anomaly": 76.2362,
        "meta_ephemeris_type": 0,
        "meta_classification_type": "U",
        "meta_norad_cat_id": 33973,
        "meta_element_set_no": 999,
        "meta_rev_at_epoch": 88512,
        "meta_bstar": 0.00028085682,
        "meta_mean_motion_dot": 9.73e-06,
        "meta_mean_motion_ddot": 0,
        "tle_line1": "1 33973U 93036FG  25340.62871588  .00000973  00000+0  28086-3 0  9990",
        "tle_line2": "2 33973  74.0075 114.3023 0047203 293.8519  76.2362 14.45380276885127"
      },
      "geometry": {
        "type": "Point",
        "coordinates": [
          -83.54799774609455,
          46.228533782293226
        ]
      }
    },
    {
      "type": "Feature",
      "properties": {
        "norad_id": 33975,
        "name": "COSMOS 2251 DEB",
        "group": "cosmos-2251-debris",
        "lat": -53.2754951282963,
        "lon": 71.85715229271084,
        "alt_km": 859.9485844637638,
        "timestamp": "2025-12-06T20:37:56.468637+00:00",
        "meta_object_name": "COSMOS 2251 DEB",
        "meta_object_id": "1993-036FJ",
        "meta_epoch": "2025-12-06T14:02:48.527232",
        "meta_mean_motion": 14.00503256,
        "meta_eccentricity": 0.01914382,
        "meta_inclination": 73.8014,
        "meta_ra_of_asc_node": 95.2709,
        "meta_arg_of_pericenter": 229.1025,
        "meta_mean_anomaly": 129.3392,
        "meta_ephemeris_type": 0,
        "meta_classification_type": "U",
        "meta_norad_cat_id": 33975,
        "meta_element_set_no": 999,
        "meta_rev_at_epoch": 85743,
        "meta_bstar": 0.0012553864,
        "meta_mean_motion_dot": 2.158e-05,
        "meta_mean_motion_ddot": 0,
        "tle_line1": "1 33975U 93036FJ  25340.58528388  .00002158  00000+0  12554-2 0  9993",
        "tle_line2": "2 33975  73.8014  95.2709 0191438 229.1025 129.3392 14.00503256857433"
      },
      "geometry": {
        "type": "Point",
        "coordinates": [
          71.85715229271084,
          -53.2754951282963
        ]
      }
    },
    {
      "type": "Feature",
      "properties": {
        "norad_id": 33980,
        "name": "COSMOS 2251 DEB",
        "group": "cosmos-2251-debris",
        "lat": -10.67593547911192,
        "lon": 67.50639728845528,
        "alt_km": 715.4216986523061,
        "timestamp": "2025-12-06T20:37:56.468648+00:00",
        "meta_object_name": "COSMOS 2251 DEB",
        "meta_object_id": "1993-036FP",
        "meta_epoch": "2025-12-06T14:40:48.414144",
        "meta_mean_motion": 14.58587471,
        "meta_eccentricity": 0.00290302,
        "meta_inclination": 74.0222,
        "meta_ra_of_asc_node": 71.075,
        "meta_arg_of_pericenter": 217.3034,
        "meta_mean_anomaly": 269.7095,
        "meta_ephemeris_type": 0,
        "meta_classification_type": "U",
        "meta_norad_cat_id": 33980,
        "meta_element_set_no": 999,
        "meta_rev_at_epoch": 88705,
        "meta_bstar": 0.0013684484,
        "meta_mean_motion_dot": 6.381e-05,
        "meta_mean_motion_ddot": 0,
        "tle_line1": "1 33980U 93036FP  25340.61167146  .00006381  00000+0  13684-2 0  9991",
        "tle_line2": "2 33980  74.0222  71.0750 0029030 217.3034 269.7095 14.58587471887052"
      },
      "geometry": {
        "type": "Point",
        "coordinates": [
          67.50639728845528,
          -10.67593547911192
        ]
      }
    },
    {
      "type": "Feature",
      "properties": {
        "norad_id": 33982,
        "name": "COSMOS 2251 DEB",
        "group": "cosmos-2251-debris",
        "lat": 8.526146920435115,
        "lon": -171.31522018972456,
        "alt_km": 714.9774323747897,
        "timestamp": "2025-12-06T20:37:56.468658+00:00",
        "meta_object_name": "COSMOS 2251 DEB",
        "meta_object_id": "1993-036FR",
        "meta_epoch": "2025-12-06T08:24:00.026784",
        "meta_mean_motion": 14.60177035,
        "meta_eccentricity": 0.00748804,
        "meta_inclination": 74.0711,
        "meta_ra_of_asc_node": 12.1091,
        "meta_arg_of_pericenter": 58.4566,
        "meta_mean_anomaly": 313.6659,
        "meta_ephemeris_type": 0,
        "meta_classification_type": "U",
        "meta_norad_cat_id": 33982,
        "meta_element_set_no": 999,
        "meta_rev_at_epoch": 89066,
        "meta_bstar": 0.00067459099,
        "meta_mean_motion_dot": 3.351e-05,
        "meta_mean_motion_ddot": 0,
        "tle_line1": "1 33982U 93036FR  25340.35000031  .00003351  00000+0  67459-3 0  9997",
        "tle_line2": "2 33982  74.0711  12.1091 0074880  58.4566 313.6659 14.60177035890668"
      },
      "geometry": {
        "type": "Point",
        "coordinates": [
          -171.31522018972456,
          8.526146920435115
        ]
      }
    },
    {
      "type": "Feature",
      "properties": {
        "norad_id": 33983,
        "name": "COSMOS 2251 DEB",
        "group": "cosmos-2251-debris",
        "lat": -52.82375712141915,
        "lon": 135.93306064170702,
        "alt_km": 718.9770238424026,
        "timestamp": "2025-12-06T20:37:56.468669+00:00",
        "meta_object_name": "COSMOS 2251 DEB",
        "meta_object_id": "1993-036FS",
        "meta_epoch": "2025-12-06T14:33:49.559904",
        "meta_mean_motion": 14.50631627,
        "meta_eccentricity": 0.00214079,
        "meta_inclination": 74.0487,
        "meta_ra_of_asc_node": 158.564,
        "meta_arg_of_pericenter": 262.1681,
        "meta_mean_anomaly": 161.814,
        "meta_ephemeris_type": 0,
        "meta_classification_type": "U",
        "meta_norad_cat_id": 33983,
        "meta_element_set_no": 999,
        "meta_rev_at_epoch": 88540,
        "meta_bstar": 0.00093199029,
        "meta_mean_motion_dot": 3.642e-05,
        "meta_mean_motion_ddot": 0,
        "tle_line1": "1 33983U 93036FS  25340.60682361  .00003642  00000+0  93199-3 0  9991",
        "tle_line2": "2 33983  74.0487 158.5640 0021407 262.1681 161.8140 14.50631627885408"
      },
      "geometry": {
        "type": "Point",
        "coordinates": [
          135.93306064170702,
          -52.82375712141915
        ]
      }
    },
    {
      "type": "Feature",
      "properties": {
        "norad_id": 33984,
        "name": "COSMOS 2251 DEB",
        "group": "cosmos-2251-debris",
        "lat": 70.11885479734227,
        "lon": 50.92167527070189,
        "alt_km": 674.049885884554,
        "timestamp": "2025-12-06T20:37:56.468680+00:00",
        "meta_object_name": "COSMOS 2251 DEB",
        "meta_object_id": "1993-036FT",
        "meta_epoch": "2025-12-06T07:15:20.143872",
        "meta_mean_motion": 14.66278079,
        "meta_eccentricity": 0.0023454,
        "meta_inclination": 74.0092,
        "meta_ra_of_asc_node": 359.5317,
        "meta_arg_of_pericenter": 199.3126,
        "meta_mean_anomaly": 178.0831,
        "meta_ephemeris_type": 0,
        "meta_classification_type": "U",
        "meta_norad_cat_id": 33984,
        "meta_element_set_no": 999,
        "meta_rev_at_epoch": 88972,
        "meta_bstar": 0.0014546811,
        "meta_mean_motion_dot": 8.032e-05,
        "meta_mean_motion_ddot": 0,
        "tle_line1": "1 33984U 93036FT  25340.30231648  .00008032  00000+0  14547-2 0  9994",
        "tle_line2": "2 33984  74.0092 359.5317 0023454 199.3126 178.0831 14.66278079889725"
      },
      "geometry": {
        "type": "Point",
        "coordinates": [
          50.92167527070189,
          70.11885479734227
        ]
      }
    }
  ]
}